{
  "type": "FeatureCollection",
  "features": [
    {
      "type": "Feature",
      "properties": {
        "norad_id": 34963,
        "name": "COSMOS 2251 DEB",
        "group": "cosmos-2251-debris",
        "lat": 49.15593090262976,
        "lon": -161.47633142250123,
        "alt_km": 725.0633051301274,
        "timestamp": "2025-12-15T10:55:21.540320+00:00",
        "meta_object_name": "COSMOS 2251 DEB",
        "meta_object_id": "1993-036AES",
        "meta_epoch": "2025-12-12T21:06:37.533312",
        "meta_mean_motion": 14.5108556,
        "meta_eccentricity": 0.00425092,
        "meta_inclination": 74.1719,
        "meta_ra_of_asc_node": 42.4827,
        "meta_arg_of_pericenter": 238.9907,
        "meta_mean_anomaly": 120.7077,
        "meta_ephemeris_type": 0,
        "meta_classification_type": "U",
        "meta_norad_cat_id": 34963,
        "meta_element_set_no": 999,
        "meta_rev_at_epoch": 86803,
        "meta_bstar": 0.0018603991,
        "meta_mean_motion_dot": 7.439e-05,
        "meta_mean_motion_ddot": 0,
        "tle_line1": "1 34963U 93036AES 25346.87960108  .00007439  00000+0  18604-2 0  9998",
        "tle_line2": "2 34963  74.1719  42.4827 0042509 238.9907 120.7077 14.51085560868035"
      },
      "geometry": {
        "type": "Point",
        "coordinates": [
          -161.47633142250123,
          49.15593090262976
        ]
      }
    },
    {
      "type": "Feature",
      "properties": {
        "norad_id": 34964,
        "name": "COSMOS 2251 DEB",
        "group": "cosmos-2251-debris",
        "lat": 14.206548481223788,
        "lon": -12.709788938914501,
        "alt_km": 1045.945046057679,
        "timestamp": "2025-12-15T10:55:21.540330+00:00",
        "meta_object_name": "COSMOS 2251 DEB",
        "meta_object_id": "1993-036AET",
        "meta_epoch": "2025-12-12T17:42:31.829760",
        "meta_mean_motion": 14.00606472,
        "meta_eccentricity": 0.0212761,
        "meta_inclination": 73.9721,
        "meta_ra_of_asc_node": 347.8441,
        "meta_arg_of_pericenter": 206.277,
        "meta_mean_anomaly": 152.7449,
        "meta_ephemeris_type": 0,
        "meta_classification_type": "U",
        "meta_norad_cat_id": 34964,
        "meta_element_set_no": 999,
        "meta_rev_at_epoch": 84478,
        "meta_bstar": 0.0019398871,
        "meta_mean_motion_dot": 3.487e-05,
        "meta_mean_motion_ddot": 0,
        "tle_line1": "1 34964U 93036AET 25346.73786840  .00003487  00000+0  19399-2 0  9994",
        "tle_line2": "2 34964  73.9721 347.8441 0212761 206.2770 152.7449 14.00606472844784"
      },
      "geometry": {
        "type": "Point",
        "coordinates": [
          -12.709788938914501,
          14.206548481223788
        ]
      }
    },
    {
      "type": "Feature",
      "properties": {
        "norad_id": 34965,
        "name": "COSMOS 2251 DEB",
        "group": "cosmos-2251-debris",
        "lat": -13.571517823857338,
        "lon": -52.65666004533441,
        "alt_km": 723.5008949552457,
        "timestamp": "2025-12-15T10:55:21.540340+00:00",
        "meta_object_name": "COSMOS 2251 DEB",
        "meta_object_id": "1993-036AEU",
        "meta_epoch": "2025-12-13T03:20:09.825504",
        "meta_mean_motion": 14.48709196,
        "meta_eccentricity": 0.00265546,
        "meta_inclination": 74.0514,
        "meta_ra_of_asc_node": 127.7194,
        "meta_arg_of_pericenter": 255.0904,
        "meta_mean_anomaly": 104.7315,
        "meta_ephemeris_type": 0,
        "meta_classification_type": "U",
        "meta_norad_cat_id": 34965,
        "meta_element_set_no": 999,
        "meta_rev_at_epoch": 87119,
        "meta_bstar": 0.00058289093,
        "meta_mean_motion_dot": 2.18e-05,
        "meta_mean_motion_ddot": 0,
        "tle_line1": "1 34965U 93036AEU 25347.13900261  .00002180  00000+0  58289-3 0  9996",
        "tle_line2": "2 34965  74.0514 127.7194 0026554 255.0904 104.7315 14.48709196871194"
      },
      "geometry": {
        "type": "Point",
        "coordinates": [
          -52.65666004533441,
          -13.571517823857338
        ]
      }
    },
    {
      "type": "Feature",
      "properties": {
        "norad_id": 34967,
        "name": "COSMOS 2251 DEB",
        "group": "cosmos-2251-debris",
        "lat": 57.898130633797756,
        "lon": -83.97432275540143,
        "alt_km": 714.3810987622537,
        "timestamp": "2025-12-15T10:55:21.540351+00:00",
        "meta_object_name": "COSMOS 2251 DEB",
        "meta_object_id": "1993-036AEW",
        "meta_epoch": "2025-12-13T00:27:20.673792",
        "meta_mean_motion": 14.44269018,
        "meta_eccentricity": 0.00380101,
        "meta_inclination": 73.9933,
        "meta_ra_of_asc_node": 253.3374,
        "meta_arg_of_pericenter": 39.5345,
        "meta_mean_anomaly": 320.8573,
        "meta_ephemeris_type": 0,
        "meta_classification_type": "U",
        "meta_norad_cat_id": 34967,
        "meta_element_set_no": 999,
        "meta_rev_at_epoch": 64961,
        "meta_bstar": 0.0011451852,
        "meta_mean_motion_dot": 3.946e-05,
        "meta_mean_motion_ddot": 0,
        "tle_line1": "1 34967U 93036AEW 25347.01898928  .00003946  00000+0  11452-2 0  9992",
        "tle_line2": "2 34967  73.9933 253.3374 0038010  39.5345 320.8573 14.44269018649616"
      },
      "geometry": {
        "type": "Point",
        "coordinates": [
          -83.97432275540143,
          57.898130633797756
        ]
      }
    },
    {
      "type": "Feature",
      "properties": {
        "norad_id": 34968,
        "name": "COSMOS 2251 DEB",
        "group": "cosmos-2251-debris",
        "lat": 61.312436625851134,
        "lon": -86.57022963993946,
        "alt_km": 661.7494908490053,
        "timestamp": "2025-12-15T10:55:21.540361+00:00",
        "meta_object_name": "COSMOS 2251 DEB",
        "meta_object_id": "1993-036AEX",
        "meta_epoch": "2025-12-14T03:22:05.329344",
        "meta_mean_motion": 14.59409619,
        "meta_eccentricity": 0.00866972,
        "meta_inclination": 74.0386,
        "meta_ra_of_asc_node": 244.3991,
        "meta_arg_of_pericenter": 4.4101,
        "meta_mean_anomaly": 355.7807,
        "meta_ephemeris_type": 0,
        "meta_classification_type": "U",
        "meta_norad_cat_id": 34968,
        "meta_element_set_no": 999,
        "meta_rev_at_epoch": 88498,
        "meta_bstar": 0.00021583388,
        "meta_mean_motion_dot": 1.045e-05,
        "meta_mean_motion_ddot": 0,
        "tle_line1": "1 34968U 93036AEX 25348.14033946  .00001045  00000+0  21583-3 0  9994",
        "tle_line2": "2 34968  74.0386 244.3991 0086697   4.4101 355.7807 14.59409619884988"
      },
      "geometry": {
        "type": "Point",
        "coordinates": [
          -86.57022963993946,
          61.312436625851134
        ]
      }
    },
    {
      "type": "Feature",
      "properties": {
        "norad_id": 34969,
        "name": "COSMOS 2251 DEB",
        "group": "cosmos-2251-debris",
        "lat": -65.60537045814903,
        "lon": -122.61215860592267,
        "alt_km": 800.3084151595276,
        "timestamp": "2025-12-15T10:55:21.540371+00:00",
        "meta_object_name": "COSMOS 2251 DEB",
        "meta_object_id": "1993-036AEY",
        "meta_epoch": "2025-12-12T19:44:01.430592",
        "meta_mean_motion": 14.3225634,
        "meta_eccentricity": 0.00736223,
        "meta_inclination": 74.0145,
        "meta_ra_of_asc_node": 22.9925,
        "meta_arg_of_pericenter": 156.2014,
        "meta_mean_anomaly": 204.2571,
        "meta_ephemeris_type": 0,
        "meta_classification_type": "U",
        "meta_norad_cat_id": 34969,
        "meta_element_set_no": 999,
        "meta_rev_at_epoch": 65138,
        "meta_bstar": 0.00040409386,
        "meta_mean_motion_dot": 1.097e-05,
        "meta_mean_motion_ddot": 0,
        "tle_line1": "1 34969U 93036AEY 25346.82223878  .00001097  00000+0  40409-3 0  9998",
        "tle_line2": "2 34969  74.0145  22.9925 0073622 156.2014 204.2571 14.32256340651386"
      },
      "geometry": {
        "type": "Point",
        "coordinates": [
          -122.61215860592267,
          -65.60537045814903
        ]
      }
    },
    {
      "type": "Feature",
      "properties": {
        "norad_id": 34971,
        "name": "COSMOS 2251 DEB",
        "group": "cosmos-2251-debris",
        "lat": 73.96691863779571,
        "lon": 8.971207114569362,
        "alt_km": 671.4576721614385,
        "timestamp": "2025-12-15T10:55:21.540411+00:00",
        "meta_object_name": "COSMOS 2251 DEB",
        "meta_object_id": "1993-036AFA",
        "meta_epoch": "2025-12-14T13:53:19.427712",
        "meta_mean_motion": 14.55636753,
        "meta_eccentricity": 0.00695431,
        "meta_inclination": 73.9787,
        "meta_ra_of_asc_node": 281.5121,
        "meta_arg_of_pericenter": 146.7538,
        "meta_mean_anomaly": 32.8652,
        "meta_ephemeris_type": 0,
        "meta_classification_type": "U",
        "meta_norad_cat_id": 34971,
        "meta_element_set_no": 999,
        "meta_rev_at_epoch": 66199,
        "meta_bstar": 0.00020308025,
        "meta_mean_motion_dot": 8.85e-06,
        "meta_mean_motion_ddot": 0,
        "tle_line1": "1 34971U 93036AFA 25348.57869708  .00000885  00000+0  20308-3 0  9993",
        "tle_line2": "2 34971  73.9787 281.5121 0069543 146.7538  32.8652 14.55636753661990"
      },
      "geometry": {
        "type": "Point",
        "coordinates": [
          8.971207114569362,
          73.96691863779571
        ]
      }
    }
  ]
}